[{"OBJECT_NAME":"STARLINK-33564","OBJECT_ID":"2024-237V","EPOCH":"2026-03-09T10:47:05.215488","MEAN_MOTION":15.27555199,"ECCENTRICITY":0.00015161,"INCLINATION":43.0008,"RA_OF_ASC_NODE":217.848,"ARG_OF_PERICENTER":273.0856,"MEAN_ANOMALY":86.9822,"EPHEMERIS_TYPE":0,"CLASSIFICATION_TYPE":"U","NORAD_CAT_ID":62286,"ELEMENT_SET_NO":999,"REV_AT_EPOCH":7115,"BSTAR":0.0006816509,"MEAN_MOTION_DOT":0.00018528,"MEAN_MOTION_DDOT":0},{"OBJECT_NAME":"FENGYUN 1C DEB","OBJECT_ID":"1999-025AQG","EPOCH":"2026-03-09T10:43:06.043872","MEAN_MOTION":15.25746961,"ECCENTRICITY":0.00178142,"INCLINATION":98.9311,"RA_OF_ASC_NODE":250.2123,"ARG_OF_PERICENTER":328.3876,"MEAN_ANOMALY":31.6286,"EPHEMERIS_TYPE":0,"CLASSIFICATION_TYPE":"U","NORAD_CAT_ID":30674,"ELEMENT_SET_NO":999,"REV_AT_EPOCH":98658,"BSTAR":0.015201752,"MEAN_MOTION_DOT":0.00411052,"MEAN_MOTION_DDOT":0}]
